{
  "norad_id": 56305,
  "name": "STARLINK-30094",
  "history": [
    {
      "epoch": "2026-03-27T11:18:31.051872Z",
      "apogee_km": 486.5155812643234,
      "perigee_km": 484.51551291210217,
      "latitude_deg": -4.897831636205503e-05,
      "longitude_deg": 113.50334633023792,
      "height_km": 484.9612862891877,
      "semi_major_axis_km": 6863.6525470882125,
      "eccentricity": 0.0001457,
      "inclination_deg": 43.0015,
      "raan_deg": 108.0383,
      "arg_perigee_deg": 289.3435,
      "mean_anomaly_deg": 70.7258,
      "mean_motion_rev_day": 15.26756671
    },
    {
      "epoch": "2026-03-29T00:59:30.727104Z",
      "apogee_km": 486.1713319900764,
      "perigee_km": 484.87959071484875,
      "latitude_deg": 4.801799244579601e-06,
      "longitude_deg": -102.14943999758982,
      "height_km": 485.1636874913265,
      "semi_major_axis_km": 6863.662461352462,
      "eccentricity": 9.41e-05,
      "inclination_deg": 43.0002,
      "raan_deg": 99.1817,
      "arg_perigee_deg": 282.354,
      "mean_anomaly_deg": 77.7206,
      "mean_motion_rev_day": 15.26753363
    },
    {
      "epoch": "2026-03-30T00:32:37.533696Z",
      "apogee_km": 486.2898335589716,
      "perigee_km": 484.7606096160025,
      "latitude_deg": 1.483055613445066e-05,
      "longitude_deg": -101.93023137230315,
      "height_km": 485.19950127463096,
      "semi_major_axis_km": 6863.662221587487,
      "eccentricity": 0.0001114,
      "inclination_deg": 43.0013,
      "raan_deg": 93.6465,
      "arg_perigee_deg": 277.6972,
      "mean_anomaly_deg": 82.3753,
      "mean_motion_rev_day": 15.26753443
    },
    {
      "epoch": "2026-03-30T06:49:26.983776Z",
      "apogee_km": 486.4350892086986,
      "perigee_km": 484.5801206177739,
      "latitude_deg": 4.3682042855452056e-05,
      "longitude_deg": 162.1309307140962,
      "height_km": 485.704417139646,
      "semi_major_axis_km": 6863.6446049132355,
      "eccentricity": 0.00013513,
      "inclination_deg": 43.0045,
      "raan_deg": 92.1716,
      "arg_perigee_deg": 243.091,
      "mean_anomaly_deg": 116.9804,
      "mean_motion_rev_day": 15.26759321
    },
    {
      "epoch": "2026-03-30T11:32:04.094016Z",
      "apogee_km": 487.2397061922211,
      "perigee_km": 483.74433447732554,
      "latitude_deg": 1.4897065741882725e-05,
      "longitude_deg": 90.17172875666802,
      "height_km": 485.5643874796491,
      "semi_major_axis_km": 6863.6290203347735,
      "eccentricity": 0.00025463,
      "inclination_deg": 43.0032,
      "raan_deg": 91.0605,
      "arg_perigee_deg": 260.301,
      "mean_anomaly_deg": 99.7554,
      "mean_motion_rev_day": 15.26764521
    },
    {
      "epoch": "2026-03-31T09:31:00.369984Z",
      "apogee_km": 487.00645175227055,
      "perigee_km": 484.20329957025115,
      "latitude_deg": -2.118816213379317e-05,
      "longitude_deg": 114.37302729815455,
      "height_km": 485.5097112885222,
      "semi_major_axis_km": 6863.741875661261,
      "eccentricity": 0.0002042,
      "inclination_deg": 43.0022,
      "raan_deg": 85.8991,
      "arg_perigee_deg": 264.7879,
      "mean_anomaly_deg": 95.2739,
      "mean_motion_rev_day": 15.26726866
    },
    {
      "epoch": "2026-03-31T23:38:53.337984Z",
      "apogee_km": 487.00759610524256,
      "perigee_km": 484.19483618426784,
      "latitude_deg": 4.748514579736278e-05,
      "longitude_deg": -101.50005379911602,
      "height_km": 485.6875848926663,
      "semi_major_axis_km": 6863.738216144755,
      "eccentricity": 0.0002049,
      "inclination_deg": 43.0022,
      "raan_deg": 82.577,
      "arg_perigee_deg": 257.3114,
      "mean_anomaly_deg": 102.7509,
      "mean_motion_rev_day": 15.26728087
    },
    {
      "epoch": "2026-04-02T10:11:26.995200Z",
      "apogee_km": 487.1767503001838,
      "perigee_km": 483.7011727047984,
      "latitude_deg": -2.335731888430051e-05,
      "longitude_deg": 90.82261624201718,
      "height_km": 485.27169399068794,
      "semi_major_axis_km": 6863.575961502491,
      "eccentricity": 0.00025319,
      "inclination_deg": 43.0013,
      "raan_deg": 74.4586,
      "arg_perigee_deg": 268.1875,
      "mean_anomaly_deg": 91.8686,
      "mean_motion_rev_day": 15.26782225
    }
  ]
}